OBJECT_NAME,OBJECT_ID,EPOCH,MEAN_MOTION,ECCENTRICITY,INCLINATION,RA_OF_ASC_NODE,ARG_OF_PERICENTER,MEAN_ANOMALY,EPHEMERIS_TYPE,CLASSIFICATION_TYPE,NORAD_CAT_ID,ELEMENT_SET_NO,REV_AT_EPOCH,BSTAR,MEAN_MOTION_DOT,MEAN_MOTION_DDOT
BEIDOU-2 M4,2012-018B,2026-06-16T14:00:59.320224,1.86229380,.0011286,55.6588,304.1100,275.8041,84.0525,0,U,38251,999,9593,0,-.71E-6,0
ARIRANG-3 (KOMPSAT-3),2012-025B,2026-06-17T04:04:11.002656,14.62206107,.0006674,98.1171,125.6298,109.3995,250.7928,0,U,38338,999,75134,.76341E-4,.338E-5,0
METOP-B,2012-049A,2026-06-17T04:33:03.597408,14.21432760,.0002239,98.6505,219.6888,19.7345,340.3919,0,U,38771,999,71326,.60599E-4,.89E-6,0
SJ-9A,2012-056A,2026-06-17T03:56:49.070112,14.85478333,.002399,97.6709,140.1167,256.7533,103.1007,0,U,38860,999,69958,.96638E-4,.785E-5,0
COSMOS 2484 (RODNIK-S 6),2013-001C,2026-06-17T03:30:21.083904,12.42939525,.0026872,82.5016,221.9181,36.7376,323.5539,0,U,39059,999,60855,.87012E-3,.131E-5,0
SARAL,2013-009A,2026-06-17T04:20:01.577184,14.32855928,.000071,98.5556,354.7479,309.4687,50.6434,0,U,39086,999,69560,.38561E-4,.61E-6,0
STRAND-1,2013-009E,2026-06-17T01:20:39.109344,14.37163232,.0007721,98.3921,348.2936,225.7005,134.3549,0,U,39090,999,69704,.84356E-4,.208E-5,0
BRITE-AUSTRIA,2013-009F,2026-06-16T23:58:48.737280,14.36542078,.0009143,98.3994,347.4395,237.0662,122.9646,0,U,39091,999,69702,.60603E-4,.135E-5,0
GAOFEN-1,2013-018A,2026-06-17T04:45:53.961408,14.76535697,.0015681,97.9098,240.2659,266.4093,93.5324,0,U,39150,999,70824,.14241E-4,.48E-6,0
NEE-01 PEGASO,2013-018B,2026-06-17T03:09:32.525280,14.93659532,.0013099,98.1222,312.2794,159.5511,200.6235,0,U,39151,999,71069,.2171E-3,.2236E-4,0
PROBA-V,2013-021A,2026-06-17T04:32:47.651424,14.23596928,.0005142,98.3584,146.7960,123.4230,236.7442,0,U,39159,999,68111,.35168E-4,.39E-6,0
ARIRANG-5 (KOMPSAT-5),2013-042A,2026-06-17T03:59:11.241312,15.04492086,.0005293,97.6200,354.8668,123.2768,236.8966,0,U,39227,999,70385,.55591E-4,.717E-5,0
GONETS-M 5,2013-048A,2026-06-17T04:41:23.383392,12.42891747,.0016089,82.4824,343.3768,210.3549,149.6601,0,U,39249,999,57888,-.31098E-3,-.33E-6,0
GONETS-M 7,2013-048C,2026-06-17T03:48:02.927808,12.42914636,.0016864,82.4891,346.3223,211.8792,148.1269,0,U,39251,999,57883,-.13342E-3,-.9E-7,0
FENGYUN 3C,2013-052A,2026-06-17T04:26:37.976064,14.15754974,.001526,98.4987,142.0600,27.6290,332.5693,0,U,39260,999,65856,.52095E-4,.61E-6,0
CASSIOPE,2013-055A,2026-06-16T23:09:56.115648,15.25172434,.0292768,80.9147,66.9918,63.1857,299.8995,0,U,39265,999,66763,.50172E-3,.45931E-3,-.4795E-6
APRIZESAT 7,2013-066A,2026-06-16T14:48:52.642944,14.91562845,.0034954,97.7709,120.8454,211.2066,148.7077,0,U,39416,999,68114,.10935E-3,.1051E-4,0
ZACUBE-1 (TSHEPISOSAT),2013-066B,2026-06-17T03:22:33.461184,15.01188974,.0040796,97.8081,130.4773,247.8306,111.8586,0,U,39417,999,68072,.2046E-3,.2606E-4,0
APRIZESAT 8,2013-066K,2026-06-17T03:23:41.178048,14.87652674,.0044428,97.8221,115.6099,286.7278,72.9065,0,U,39425,999,67966,.91707E-4,.791E-5,0
TRITON-1,2013-066M,2026-06-17T03:51:12.486816,14.81704769,.0088497,97.8253,77.9691,234.0093,125.2892,0,U,39427,999,67408,.15438E-3,.1243E-4,0
