BEIDOU-2 M4             
1 38251U 12018B   26167.58401991 -.00000071  00000+0  00000+0 0  9997
2 38251  55.6588 304.1100 0011286 275.8041  84.0525  1.86229380 95931
ARIRANG-3 (KOMPSAT-3)   
1 38338U 12025B   26168.16957179  .00000338  00000+0  76341-4 0  9991
2 38338  98.1171 125.6298 0006674 109.3995 250.7928 14.62206107751348
METOP-B                 
1 38771U 12049A   26168.18962497  .00000089  00000+0  60599-4 0  9990
2 38771  98.6505 219.6888 0002239  19.7345 340.3919 14.21432760713266
SJ-9A                   
1 38860U 12056A   26168.16445683  .00000785  00000+0  96638-4 0  9994
2 38860  97.6709 140.1167 0023990 256.7533 103.1007 14.85478333699584
COSMOS 2484 (RODNIK-S 6)
1 39059U 13001C   26168.14607736  .00000131  00000+0  87012-3 0  9993
2 39059  82.5016 221.9181 0026872  36.7376 323.5539 12.42939525608557
SARAL                   
1 39086U 13009A   26168.18057381  .00000061  00000+0  38561-4 0  9998
2 39086  98.5556 354.7479 0000710 309.4687  50.6434 14.32855928695605
STRAND-1                
1 39090U 13009E   26168.05600821  .00000208  00000+0  84356-4 0  9998
2 39090  98.3921 348.2936 0007721 225.7005 134.3549 14.37163232697045
BRITE-AUSTRIA           
1 39091U 13009F   26167.99917520  .00000135  00000+0  60603-4 0  9996
2 39091  98.3994 347.4395 0009143 237.0662 122.9646 14.36542078697028
GAOFEN-1                
1 39150U 13018A   26168.19854122  .00000048  00000+0  14241-4 0  9993
2 39150  97.9098 240.2659 0015681 266.4093  93.5324 14.76535697708241
NEE-01 PEGASO           
1 39151U 13018B   26168.13162645  .00002236  00000+0  21710-3 0  9999
2 39151  98.1222 312.2794 0013099 159.5511 200.6235 14.93659532710690
PROBA-V                 
1 39159U 13021A   26168.18944041  .00000039  00000+0  35168-4 0  9996
2 39159  98.3584 146.7960 0005142 123.4230 236.7442 14.23596928681110
ARIRANG-5 (KOMPSAT-5)   
1 39227U 13042A   26168.16610233  .00000717  00000+0  55591-4 0  9991
2 39227  97.6200 354.8668 0005293 123.2768 236.8966 15.04492086703859
GONETS-M 5              
1 39249U 13048A   26168.19540953 -.00000033  00000+0 -31098-3 0  9993
2 39249  82.4824 343.3768 0016089 210.3549 149.6601 12.42891747578887
GONETS-M 7              
1 39251U 13048C   26168.15836722 -.00000009  00000+0 -13342-3 0  9999
2 39251  82.4891 346.3223 0016864 211.8792 148.1269 12.42914636578832
FENGYUN 3C              
1 39260U 13052A   26168.18516176  .00000061  00000+0  52095-4 0  9990
2 39260  98.4987 142.0600 0015260  27.6290 332.5693 14.15754974658568
CASSIOPE                
1 39265U 13055A   26167.96523282  .00045931 -47950-6  50172-3 0  9990
2 39265  80.9147  66.9918 0292768  63.1857 299.8995 15.25172434667632
APRIZESAT 7             
1 39416U 13066A   26167.61727596  .00001051  00000+0  10935-3 0  9991
2 39416  97.7709 120.8454 0034954 211.2066 148.7077 14.91562845681140
ZACUBE-1 (TSHEPISOSAT)  
1 39417U 13066B   26168.14066506  .00002606  00000+0  20460-3 0  9999
2 39417  97.8081 130.4773 0040796 247.8306 111.8586 15.01188974680727
APRIZESAT 8             
1 39425U 13066K   26168.14144882  .00000791  00000+0  91707-4 0  9998
2 39425  97.8221 115.6099 0044428 286.7278  72.9065 14.87652674679660
TRITON-1                
1 39427U 13066M   26168.16056119  .00001243  00000+0  15438-3 0  9996
2 39427  97.8253  77.9691 0088497 234.0093 125.2892 14.81704769674088
